{
  "type": "FeatureCollection",
  "features": [
    {
      "type": "Feature",
      "properties": {
        "norad_id": 66628,
        "name": "STARLINK-35862",
        "group": "last-30-days",
        "lat": 31.640221643157588,
        "lon": -113.03498576367501,
        "alt_km": 371.22113126552904,
        "timestamp": "2025-12-06T03:35:00.474765+00:00",
        "meta_object_name": "STARLINK-35862",
        "meta_object_id": "2025-271M",
        "meta_epoch": "2025-12-05T04:29:21.043104",
        "meta_mean_motion": 15.75331783,
        "meta_eccentricity": 0.00292278,
        "meta_inclination": 53.1565,
        "meta_ra_of_asc_node": 224.1852,
        "meta_arg_of_pericenter": 300.1043,
        "meta_mean_anomaly": 59.7081,
        "meta_ephemeris_type": 0,
        "meta_classification_type": "U",
        "meta_norad_cat_id": 66628,
        "meta_element_set_no": 999,
        "meta_rev_at_epoch": 302,
        "meta_bstar": -0.043866785,
        "meta_mean_motion_dot": -0.05803272,
        "meta_mean_motion_ddot": 0,
        "tle_line1": "1 66628U 25271M   25339.18704911 -.05803272  00000+0 -43867-1 0  9995",
        "tle_line2": "2 66628  53.1565 224.1852 0029227 300.1043  59.7081 15.75331783  3020"
      },
      "geometry": {
        "type": "Point",
        "coordinates": [
          -113.03498576367501,
          31.640221643157588
        ]
      }
    },
    {
      "type": "Feature",
      "properties": {
        "norad_id": 66629,
        "name": "STARLINK-35956",
        "group": "last-30-days",
        "lat": 48.54027469807989,
        "lon": -82.52676285182875,
        "alt_km": 346.4823655825967,
        "timestamp": "2025-12-06T03:35:00.474775+00:00",
        "meta_object_name": "STARLINK-35956",
        "meta_object_id": "2025-271N",
        "meta_epoch": "2025-12-05T05:58:56.604864",
        "meta_mean_motion": 15.78470183,
        "meta_eccentricity": 0.00069761,
        "meta_inclination": 53.1542,
        "meta_ra_of_asc_node": 223.8713,
        "meta_arg_of_pericenter": 229.6453,
        "meta_mean_anomaly": 130.396,
        "meta_ephemeris_type": 0,
        "meta_classification_type": "U",
        "meta_norad_cat_id": 66629,
        "meta_element_set_no": 999,
        "meta_rev_at_epoch": 303,
        "meta_bstar": -0.016516188,
        "meta_mean_motion_dot": -0.02510683,
        "meta_mean_motion_ddot": 0,
        "tle_line1": "1 66629U 25271N   25339.24926626 -.02510683  00000+0 -16516-1 0  9991",
        "tle_line2": "2 66629  53.1542 223.8713 0006976 229.6453 130.3960 15.78470183  3038"
      },
      "geometry": {
        "type": "Point",
        "coordinates": [
          -82.52676285182875,
          48.54027469807989
        ]
      }
    },
    {
      "type": "Feature",
      "properties": {
        "norad_id": 66630,
        "name": "STARLINK-35949",
        "group": "last-30-days",
        "lat": 48.73012013317545,
        "lon": -19.398893467917496,
        "alt_km": 309.3700737060817,
        "timestamp": "2025-12-06T03:35:00.474785+00:00",
        "meta_object_name": "STARLINK-35949",
        "meta_object_id": "2025-271P",
        "meta_epoch": "2025-12-04T16:18:42.866784",
        "meta_mean_motion": 15.82414283,
        "meta_eccentricity": 0.0013011,
        "meta_inclination": 53.1561,
        "meta_ra_of_asc_node": 226.7087,
        "meta_arg_of_pericenter": 255.5421,
        "meta_mean_anomaly": 104.4159,
        "meta_ephemeris_type": 0,
        "meta_classification_type": "U",
        "meta_norad_cat_id": 66630,
        "meta_element_set_no": 999,
        "meta_rev_at_epoch": 294,
        "meta_bstar": 0.0072798,
        "meta_mean_motion_dot": 0.01751673,
        "meta_mean_motion_ddot": 0,
        "tle_line1": "1 66630U 25271P   25338.67966281  .01751673  00000+0  72798-2 0  9998",
        "tle_line2": "2 66630  53.1561 226.7087 0013011 255.5421 104.4159 15.82414283  2943"
      },
      "geometry": {
        "type": "Point",
        "coordinates": [
          -19.398893467917496,
          48.73012013317545
        ]
      }
    },
    {
      "type": "Feature",
      "properties": {
        "norad_id": 66631,
        "name": "STARLINK-35965",
        "group": "last-30-days",
        "lat": 52.89349492502538,
        "lon": -43.08157457558838,
        "alt_km": 326.12003254742103,
        "timestamp": "2025-12-06T03:35:00.474795+00:00",
        "meta_object_name": "STARLINK-35965",
        "meta_object_id": "2025-271Q",
        "meta_epoch": "2025-12-04T22:22:01.610112",
        "meta_mean_motion": 15.81644206,
        "meta_eccentricity": 0.0009959,
        "meta_inclination": 53.1559,
        "meta_ra_of_asc_node": 225.4384,
        "meta_arg_of_pericenter": 249.18,
        "meta_mean_anomaly": 110.8157,
        "meta_ephemeris_type": 0,
        "meta_classification_type": "U",
        "meta_norad_cat_id": 66631,
        "meta_element_set_no": 999,
        "meta_rev_at_epoch": 298,
        "meta_bstar": -0.00084971,
        "meta_mean_motion_dot": -0.00171858,
        "meta_mean_motion_ddot": 0,
        "tle_line1": "1 66631U 25271Q   25338.93196308 -.00171858  00000+0 -84971-3 0  9992",
        "tle_line2": "2 66631  53.1559 225.4384 0009959 249.1800 110.8157 15.81644206  2985"
      },
      "geometry": {
        "type": "Point",
        "coordinates": [
          -43.08157457558838,
          52.89349492502538
        ]
      }
    },
    {
      "type": "Feature",
      "properties": {
        "norad_id": 66632,
        "name": "STARLINK-35973",
        "group": "last-30-days",
        "lat": 46.11524525710343,
        "lon": -11.941228776609872,
        "alt_km": 316.0561322915464,
        "timestamp": "2025-12-06T03:35:00.474806+00:00",
        "meta_object_name": "STARLINK-35973",
        "meta_object_id": "2025-271R",
        "meta_epoch": "2025-12-05T05:55:20.151264",
        "meta_mean_motion": 15.84396697,
        "meta_eccentricity": 0.00203835,
        "meta_inclination": 53.1555,
        "meta_ra_of_asc_node": 223.8443,
        "meta_arg_of_pericenter": 290.7056,
        "meta_mean_anomaly": 69.1783,
        "meta_ephemeris_type": 0,
        "meta_classification_type": "U",
        "meta_norad_cat_id": 66632,
        "meta_element_set_no": 999,
        "meta_rev_at_epoch": 299,
        "meta_bstar": 0.0065888113,
        "meta_mean_motion_dot": 0.01794338,
        "meta_mean_motion_ddot": 0,
        "tle_line1": "1 66632U 25271R   25339.24676101  .01794338  00000+0  65888-2 0  9990",
        "tle_line2": "2 66632  53.1555 223.8443 0020383 290.7056  69.1783 15.84396697  2992"
      },
      "geometry": {
        "type": "Point",
        "coordinates": [
          -11.941228776609872,
          46.11524525710343
        ]
      }
    },
    {
      "type": "Feature",
      "properties": {
        "norad_id": 66633,
        "name": "STARLINK-35948",
        "group": "last-30-days",
        "lat": 48.36644831452148,
        "lon": -18.224424927951,
        "alt_km": 313.8897919151141,
        "timestamp": "2025-12-06T03:35:00.474818+00:00",
        "meta_object_name": "STARLINK-35948",
        "meta_object_id": "2025-271S",
        "meta_epoch": "2025-12-05T02:54:02.678976",
        "meta_mean_motion": 15.827094,
        "meta_eccentricity": 0.00180308,
        "meta_inclination": 53.1552,
        "meta_ra_of_asc_node": 224.4831,
        "meta_arg_of_pericenter": 319.8155,
        "meta_mean_anomaly": 40.1535,
        "meta_ephemeris_type": 0,
        "meta_classification_type": "U",
        "meta_norad_cat_id": 66633,
        "meta_element_set_no": 999,
        "meta_rev_at_epoch": 301,
        "meta_bstar": 0.00851054,
        "meta_mean_motion_dot": 0.02140129,
        "meta_mean_motion_ddot": 0,
        "tle_line1": "1 66633U 25271S   25339.12086434  .02140129  00000+0  85105-2 0  9990",
        "tle_line2": "2 66633  53.1552 224.4831 0018030 319.8155  40.1535 15.82709400  3013"
      },
      "geometry": {
        "type": "Point",
        "coordinates": [
          -18.224424927951,
          48.36644831452148
        ]
      }
    },
    {
      "type": "Feature",
      "properties": {
        "norad_id": 66634,
        "name": "STARLINK-35967",
        "group": "last-30-days",
        "lat": 11.873785651003207,
        "lon": -131.34354404865653,
        "alt_km": 313.80417471548117,
        "timestamp": "2025-12-06T03:35:00.474829+00:00",
        "meta_object_name": "STARLINK-35967",
        "meta_object_id": "2025-271T",
        "meta_epoch": "2025-12-04T16:17:20.200128",
        "meta_mean_motion": 15.74398593,
        "meta_eccentricity": 0.003543,
        "meta_inclination": 53.1568,
        "meta_ra_of_asc_node": 226.7021,
        "meta_arg_of_pericenter": 33.0196,
        "meta_mean_anomaly": 327.3026,
        "meta_ephemeris_type": 0,
        "meta_classification_type": "U",
        "meta_norad_cat_id": 66634,
        "meta_element_set_no": 999,
        "meta_rev_at_epoch": 290,
        "meta_bstar": -0.07605,
        "meta_mean_motion_dot": -0.09405874,
        "meta_mean_motion_ddot": 0,
        "tle_line1": "1 66634U 25271T   25338.67870602 -.09405874  00000+0 -76050-1 0  9996",
        "tle_line2": "2 66634  53.1568 226.7021 0035430  33.0196 327.3026 15.74398593  2900"
      },
      "geometry": {
        "type": "Point",
        "coordinates": [
          -131.34354404865653,
          11.873785651003207
        ]
      }
    }
  ]
}